[
  {
    "OBJECT_NAME": "STARLINK-35032",
    "OBJECT_ID": "25191D",
    "EPOCH": "2025-11-11T07:03:30.910464",
    "MEAN_MOTION": 15.05654839,
    "ECCENTRICITY": 0.0002528,
    "INCLINATION": 97.6033,
    "RA_OF_ASC_NODE": 184.8138,
    "ARG_OF_PERICENTER": 89.5457,
    "MEAN_ANOMALY": 270.606,
    "EPHEMERIS_TYPE": 0,
    "CLASSIFICATION_TYPE": "U",
    "NORAD_CAT_ID": 65382,
    "ELEMENT_SET_NO": 999,
    "REV_AT_EPOCH": 1245,
    "BSTAR": 0.00039909,
    "MEAN_MOTION_DOT": 5.703e-05,
    "MEAN_MOTION_DDOT": 0.0,
    "TLE_LINE1": "1 65382U 25191D   25315.29410776  .00005703  00000+0  39909-3 0  9991",
    "TLE_LINE2": "2 65382  97.6033 184.8138 0002528  89.5457 270.6060 15.05654839 12451",
    "COMMENT": "Grouped by shell and plane from TLE"
  },
  {
    "OBJECT_NAME": "STARLINK-35054",
    "OBJECT_ID": "25191E",
    "EPOCH": "2025-11-11T04:28:00.152832",
    "MEAN_MOTION": 15.05658434,
    "ECCENTRICITY": 0.0002908,
    "INCLINATION": 97.6031,
    "RA_OF_ASC_NODE": 184.6492,
    "ARG_OF_PERICENTER": 80.3845,
    "MEAN_ANOMALY": 279.771,
    "EPHEMERIS_TYPE": 0,
    "CLASSIFICATION_TYPE": "U",
    "NORAD_CAT_ID": 65383,
    "ELEMENT_SET_NO": 999,
    "REV_AT_EPOCH": 1243,
    "BSTAR": 0.00074036,
    "MEAN_MOTION_DOT": 0.00010641,
    "MEAN_MOTION_DDOT": 0.0,
    "TLE_LINE1": "1 65383U 25191E   25315.18611288  .00010641  00000+0  74036-3 0  9998",
    "TLE_LINE2": "2 65383  97.6031 184.6492 0002908  80.3845 279.7710 15.05658434 12438",
    "COMMENT": "Grouped by shell and plane from TLE"
  },
  {
    "OBJECT_NAME": "STARLINK-35012",
    "OBJECT_ID": "25191F",
    "EPOCH": "2025-11-11T05:39:46.587168",
    "MEAN_MOTION": 15.05657242,
    "ECCENTRICITY": 0.0002448,
    "INCLINATION": 97.6022,
    "RA_OF_ASC_NODE": 184.7355,
    "ARG_OF_PERICENTER": 88.2695,
    "MEAN_ANOMALY": 271.8812,
    "EPHEMERIS_TYPE": 0,
    "CLASSIFICATION_TYPE": "U",
    "NORAD_CAT_ID": 65384,
    "ELEMENT_SET_NO": 999,
    "REV_AT_EPOCH": 1244,
    "BSTAR": 0.00062371,
    "MEAN_MOTION_DOT": 8.952e-05,
    "MEAN_MOTION_DDOT": 0.0,
    "TLE_LINE1": "1 65384U 25191F   25315.23595587  .00008952  00000+0  62371-3 0  9999",
    "TLE_LINE2": "2 65384  97.6022 184.7355 0002448  88.2695 271.8812 15.05657242 12440",
    "COMMENT": "Grouped by shell and plane from TLE"
  },
  {
    "OBJECT_NAME": "STARLINK-35073",
    "OBJECT_ID": "25191G",
    "EPOCH": "2025-11-11T05:15:51.288768",
    "MEAN_MOTION": 15.05663153,
    "ECCENTRICITY": 0.0003237,
    "INCLINATION": 97.6016,
    "RA_OF_ASC_NODE": 184.7582,
    "ARG_OF_PERICENTER": 84.639,
    "MEAN_ANOMALY": 275.5206,
    "EPHEMERIS_TYPE": 0,
    "CLASSIFICATION_TYPE": "U",
    "NORAD_CAT_ID": 65385,
    "ELEMENT_SET_NO": 999,
    "REV_AT_EPOCH": 1244,
    "BSTAR": 0.00044021,
    "MEAN_MOTION_DOT": 6.299e-05,
    "MEAN_MOTION_DDOT": 0.0,
    "TLE_LINE1": "1 65385U 25191G   25315.21934362  .00006299  00000+0  44021-3 0  9990",
    "TLE_LINE2": "2 65385  97.6016 184.7582 0003237  84.6390 275.5206 15.05663153 12441",
    "COMMENT": "Grouped by shell and plane from TLE"
  },
  {
    "OBJECT_NAME": "STARLINK-35066",
    "OBJECT_ID": "25191H",
    "EPOCH": "2025-11-11T04:47:59.109216",
    "MEAN_MOTION": 15.05604366,
    "ECCENTRICITY": 0.0003669,
    "INCLINATION": 97.6001,
    "RA_OF_ASC_NODE": 184.7871,
    "ARG_OF_PERICENTER": 83.0882,
    "MEAN_ANOMALY": 277.0762,
    "EPHEMERIS_TYPE": 0,
    "CLASSIFICATION_TYPE": "U",
    "NORAD_CAT_ID": 65386,
    "ELEMENT_SET_NO": 999,
    "REV_AT_EPOCH": 1244,
    "BSTAR": 0.00042028,
    "MEAN_MOTION_DOT": 6.002e-05,
    "MEAN_MOTION_DDOT": 0.0,
    "TLE_LINE1": "1 65386U 25191H   25315.19998969  .00006002  00000+0  42028-3 0  9998",
    "TLE_LINE2": "2 65386  97.6001 184.7871 0003669  83.0882 277.0762 15.05604366 12440",
    "COMMENT": "Grouped by shell and plane from TLE"
  },
  {
    "OBJECT_NAME": "STARLINK-34703",
    "OBJECT_ID": "25191J",
    "EPOCH": "2025-11-11T05:07:53.072544",
    "MEAN_MOTION": 15.05656352,
    "ECCENTRICITY": 0.0003681,
    "INCLINATION": 97.6017,
    "RA_OF_ASC_NODE": 184.7674,
    "ARG_OF_PERICENTER": 71.4875,
    "MEAN_ANOMALY": 288.6752,
    "EPHEMERIS_TYPE": 0,
    "CLASSIFICATION_TYPE": "U",
    "NORAD_CAT_ID": 65387,
    "ELEMENT_SET_NO": 999,
    "REV_AT_EPOCH": 1244,
    "BSTAR": 0.00052273,
    "MEAN_MOTION_DOT": 7.492e-05,
    "MEAN_MOTION_DDOT": 0.0,
    "TLE_LINE1": "1 65387U 25191J   25315.21380871  .00007492  00000+0  52273-3 0  9996",
    "TLE_LINE2": "2 65387  97.6017 184.7674 0003681  71.4875 288.6752 15.05656352 12445",
    "COMMENT": "Grouped by shell and plane from TLE"
  },
  {
    "OBJECT_NAME": "STARLINK-34957",
    "OBJECT_ID": "25191K",
    "EPOCH": "2025-11-11T04:39:59.367168",
    "MEAN_MOTION": 15.05675018,
    "ECCENTRICITY": 0.0002253,
    "INCLINATION": 97.6032,
    "RA_OF_ASC_NODE": 184.7924,
    "ARG_OF_PERICENTER": 74.399,
    "MEAN_ANOMALY": 285.7485,
    "EPHEMERIS_TYPE": 0,
    "CLASSIFICATION_TYPE": "U",
    "NORAD_CAT_ID": 65388,
    "ELEMENT_SET_NO": 999,
    "REV_AT_EPOCH": 1244,
    "BSTAR": 0.00077523,
    "MEAN_MOTION_DOT": 0.0001115,
    "MEAN_MOTION_DDOT": 0.0,
    "TLE_LINE1": "1 65388U 25191K   25315.19443712  .00011150  00000+0  77523-3 0  9999",
    "TLE_LINE2": "2 65388  97.6032 184.7924 0002253  74.3990 285.7485 15.05675018 12446",
    "COMMENT": "Grouped by shell and plane from TLE"
  },
  {
    "OBJECT_NAME": "STARLINK-34993",
    "OBJECT_ID": "25191L",
    "EPOCH": "2025-11-11T05:43:45.932448",
    "MEAN_MOTION": 15.05660884,
    "ECCENTRICITY": 0.0003129,
    "INCLINATION": 97.6015,
    "RA_OF_ASC_NODE": 184.7312,
    "ARG_OF_PERICENTER": 86.5716,
    "MEAN_ANOMALY": 273.5869,
    "EPHEMERIS_TYPE": 0,
    "CLASSIFICATION_TYPE": "U",
    "NORAD_CAT_ID": 65389,
    "ELEMENT_SET_NO": 999,
    "REV_AT_EPOCH": 1244,
    "BSTAR": 0.0008469100000000001,
    "MEAN_MOTION_DOT": 0.00012185,
    "MEAN_MOTION_DDOT": 0.0,
    "TLE_LINE1": "1 65389U 25191L   25315.23872607  .00012185  00000+0  84691-3 0  9997",
    "TLE_LINE2": "2 65389  97.6015 184.7312 0003129  86.5716 273.5869 15.05660884 12449",
    "COMMENT": "Grouped by shell and plane from TLE"
  },
  {
    "OBJECT_NAME": "STARLINK-35083",
    "OBJECT_ID": "25191M",
    "EPOCH": "2025-11-11T04:24:00.591552",
    "MEAN_MOTION": 15.0565757,
    "ECCENTRICITY": 0.0002501,
    "INCLINATION": 97.6033,
    "RA_OF_ASC_NODE": 184.6527,
    "ARG_OF_PERICENTER": 88.6099,
    "MEAN_ANOMALY": 271.5414,
    "EPHEMERIS_TYPE": 0,
    "CLASSIFICATION_TYPE": "U",
    "NORAD_CAT_ID": 65390,
    "ELEMENT_SET_NO": 999,
    "REV_AT_EPOCH": 1243,
    "BSTAR": 0.0006311099999999999,
    "MEAN_MOTION_DOT": 9.059e-05,
    "MEAN_MOTION_DDOT": 0.0,
    "TLE_LINE1": "1 65390U 25191M   25315.18334018  .00009059  00000+0  63111-3 0  9992",
    "TLE_LINE2": "2 65390  97.6033 184.6527 0002501  88.6099 271.5414 15.05657570 12439",
    "COMMENT": "Grouped by shell and plane from TLE"
  },
  {
    "OBJECT_NAME": "STARLINK-34786",
    "OBJECT_ID": "25191N",
    "EPOCH": "2025-11-11T04:51:56.220192",
    "MEAN_MOTION": 15.05659115,
    "ECCENTRICITY": 0.0002842,
    "INCLINATION": 97.6007,
    "RA_OF_ASC_NODE": 184.783,
    "ARG_OF_PERICENTER": 85.2295,
    "MEAN_ANOMALY": 274.9256,
    "EPHEMERIS_TYPE": 0,
    "CLASSIFICATION_TYPE": "U",
    "NORAD_CAT_ID": 65391,
    "ELEMENT_SET_NO": 999,
    "REV_AT_EPOCH": 1244,
    "BSTAR": 0.0011315000000000001,
    "MEAN_MOTION_DOT": 0.00016309,
    "MEAN_MOTION_DDOT": 0.0,
    "TLE_LINE1": "1 65391U 25191N   25315.20273403  .00016309  00000+0  11315-2 0  9990",
    "TLE_LINE2": "2 65391  97.6007 184.7830 0002842  85.2295 274.9256 15.05659115 12447",
    "COMMENT": "Grouped by shell and plane from TLE"
  },
  {
    "OBJECT_NAME": "STARLINK-35082",
    "OBJECT_ID": "25191P",
    "EPOCH": "2025-11-11T04:31:59.878272",
    "MEAN_MOTION": 15.05658138,
    "ECCENTRICITY": 0.0001802,
    "INCLINATION": 97.6016,
    "RA_OF_ASC_NODE": 184.8003,
    "ARG_OF_PERICENTER": 91.6614,
    "MEAN_ANOMALY": 268.482,
    "EPHEMERIS_TYPE": 0,
    "CLASSIFICATION_TYPE": "U",
    "NORAD_CAT_ID": 65392,
    "ELEMENT_SET_NO": 999,
    "REV_AT_EPOCH": 1244,
    "BSTAR": 0.00057045,
    "MEAN_MOTION_DOT": 8.182e-05,
    "MEAN_MOTION_DDOT": 0.0,
    "TLE_LINE1": "1 65392U 25191P   25315.18888748  .00008182  00000+0  57045-3 0  9993",
    "TLE_LINE2": "2 65392  97.6016 184.8003 0001802  91.6614 268.4820 15.05658138 12441",
    "COMMENT": "Grouped by shell and plane from TLE"
  },
  {
    "OBJECT_NAME": "STARLINK-35097",
    "OBJECT_ID": "25191Q",
    "EPOCH": "2025-11-11T05:23:49.892064",
    "MEAN_MOTION": 15.05661686,
    "ECCENTRICITY": 0.0003212,
    "INCLINATION": 97.6022,
    "RA_OF_ASC_NODE": 184.7523,
    "ARG_OF_PERICENTER": 84.2136,
    "MEAN_ANOMALY": 275.9457,
    "EPHEMERIS_TYPE": 0,
    "CLASSIFICATION_TYPE": "U",
    "NORAD_CAT_ID": 65393,
    "ELEMENT_SET_NO": 999,
    "REV_AT_EPOCH": 1099,
    "BSTAR": 0.00055534,
    "MEAN_MOTION_DOT": 7.964e-05,
    "MEAN_MOTION_DDOT": 0.0,
    "TLE_LINE1": "1 65393U 25191Q   25315.22488301  .00007964  00000+0  55534-3 0  9998",
    "TLE_LINE2": "2 65393  97.6022 184.7523 0003212  84.2136 275.9457 15.05661686 10998",
    "COMMENT": "Grouped by shell and plane from TLE"
  },
  {
    "OBJECT_NAME": "STARLINK-35058",
    "OBJECT_ID": "25191R",
    "EPOCH": "2025-11-11T05:31:48.218880",
    "MEAN_MOTION": 15.05653452,
    "ECCENTRICITY": 0.00027,
    "INCLINATION": 97.6027,
    "RA_OF_ASC_NODE": 184.7438,
    "ARG_OF_PERICENTER": 86.6535,
    "MEAN_ANOMALY": 273.5001,
    "EPHEMERIS_TYPE": 0,
    "CLASSIFICATION_TYPE": "U",
    "NORAD_CAT_ID": 65394,
    "ELEMENT_SET_NO": 999,
    "REV_AT_EPOCH": 1244,
    "BSTAR": 0.00029918,
    "MEAN_MOTION_DOT": 4.259e-05,
    "MEAN_MOTION_DDOT": 0.0,
    "TLE_LINE1": "1 65394U 25191R   25315.23041920  .00004259  00000+0  29918-3 0  9993",
    "TLE_LINE2": "2 65394  97.6027 184.7438 0002700  86.6535 273.5001 15.05653452 12442",
    "COMMENT": "Grouped by shell and plane from TLE"
  }
]